     3.03           N: GNSS NAV DATA    M: MIXED            RINEX VERSION / TYPE
sbf2rin-13.2.0                          20191216 000625 UTC PGM / RUN BY / DATE 
                                                            COMMENT             
                                                            COMMENT             
                                                            COMMENT             
                                                            COMMENT             
                                                            COMMENT             
                                                            COMMENT             
                                                            COMMENT             
                                                            END OF HEADER       
E15 2019 12 15 13 20 00 8.842960814945E-04-1.278976924368E-12 0.000000000000E+00
     8.000000000000E+01-1.234375000000E+02 2.902978063546E-09-2.814425595826E+00
    -5.753710865974E-06 3.782315179706E-04-8.773058652878E-07 5.440600172043E+03
     4.800000000000E+04-4.842877388000E-08-6.484462242852E-01 2.607703208923E-08
     9.895284798216E-01 3.687500000000E+02-1.777781726808E+00-5.920246602034E-09
    -1.110760553350E-10 5.170000000000E+02 2.084000000000E+03
     3.120000000000E+00 0.000000000000E+00 4.190951585770E-09 4.656612873077E-09
     4.868500000000E+04
E01 2019 12 15 13 20 00-7.528861751780E-04-7.858602657507E-12 0.000000000000E+00
     8.000000000000E+01 9.443750000000E+01 2.380456298417E-09 2.357585154748E+00
     4.459172487259E-06 1.624174183235E-04 1.270510256290E-05 5.440624130249E+03
     4.800000000000E+04-1.229345798492E-07-2.727665809864E+00-1.117587089539E-07
     9.854836488468E-01 8.290625000000E+01-9.435479186038E-01-5.055210569811E-09
    -5.368080744967E-10 5.170000000000E+02 2.084000000000E+03
    -1.000000000000E+00 0.000000000000E+00-1.862645149231E-09-3.259629011154E-09
     4.887500000000E+04
E21 2019 12 15 13 20 00-5.714779254049E-04-2.017941369559E-12 0.000000000000E+00
     8.000000000000E+01 1.069375000000E+02 2.477603202118E-09 3.011207320712E+00
     4.900619387627E-06 9.122758638114E-05 1.287460327148E-05 5.440631250381E+03
     4.800000000000E+04 4.842877388000E-08-2.730369137645E+00-1.024454832077E-07
     9.850487949848E-01 7.743750000000E+01-8.138303142021E-01-5.117356015561E-09
    -5.646663777640E-10 5.170000000000E+02 2.084000000000E+03
     3.120000000000E+00 0.000000000000E+00 2.328306436539E-10 0.000000000000E+00
     4.893500000000E+04
E33 2019 12 15 13 20 00-4.714747774415E-04 1.989519660128E-13 0.000000000000E+00
     8.000000000000E+01-9.959375000000E+01 2.901192274875E-09 9.488100261575E-01
    -4.600733518600E-06 3.398475237191E-04-4.023313522339E-07 5.440597717285E+03
     4.800000000000E+04 3.725290298462E-09-6.484613245256E-01 6.891787052155E-08
     9.895669940659E-01 3.616562500000E+02-1.612934729709E+00-5.862029891360E-09
    -1.035757429169E-10 5.170000000000E+02 2.084000000000E+03
     3.120000000000E+00 0.000000000000E+00-5.122274160385E-09-5.820766091347E-09
     4.901500000000E+04
E18 2019 12 15 13 30 00-9.272567695007E-04-1.421085471520E-11 0.000000000000E+00
     8.100000000000E+01 3.825000000000E+01 6.723494346241E-09-8.240614585417E-01
     2.739951014519E-06 1.668820399791E-01 5.763024091721E-06 5.289328166962E+03
     4.860000000000E+04-3.168359398842E-06-1.300783788717E+00 1.011416316032E-06
     8.825517116727E-01 2.551250000000E+02 1.628964816946E+00-1.134511542674E-08
     3.771585673111E-10 5.170000000000E+02 2.084000000000E+03
     3.120000000000E+00 3.900000000000E+02-3.259629011154E-09-3.958120942116E-09
     4.926500000000E+04
E21 2019 12 15 13 30 00-5.714792059734E-04-2.017941369559E-12 0.000000000000E+00
     8.100000000000E+01 1.083437500000E+02 2.497961192967E-09 3.083893416356E+00
     4.941597580910E-06 9.149650577456E-05 1.293979585171E-05 5.440630636215E+03
     4.860000000000E+04 4.470348358154E-08-2.730372152720E+00-8.940696716309E-08
     9.850484277923E-01 7.534375000000E+01-8.121324661085E-01-5.125213485714E-09
    -5.675236396376E-10 5.170000000000E+02 2.084000000000E+03
     3.120000000000E+00 0.000000000000E+00 2.328306436539E-10 0.000000000000E+00
     4.926500000000E+04
E01 2019 12 15 13 30 00-7.528909482062E-04-7.858602657507E-12 0.000000000000E+00
     8.100000000000E+01 9.437500000000E+01 2.389385241772E-09 2.431950713995E+00
     4.436820745468E-06 1.624068245292E-04 1.272000372410E-05 5.440624155045E+03
     4.860000000000E+04-9.872019290924E-08-2.727668721071E+00-1.192092895508E-07
     9.854833606519E-01 8.284375000000E+01-9.435290864594E-01-5.063068039964E-09
    -5.503800683962E-10 5.170000000000E+02 2.084000000000E+03
    -1.000000000000E+00 0.000000000000E+00-1.862645149231E-09-3.259629011154E-09
     4.926500000000E+04
E33 2019 12 15 13 30 00-4.714747192338E-04 1.989519660128E-13 0.000000000000E+00
     8.100000000000E+01-9.971875000000E+01 2.900477959406E-09 1.022426809803E+00
    -4.606321454048E-06 3.398453118280E-04-4.917383193970E-07 5.440598236084E+03
     4.860000000000E+04-1.490116119385E-08-6.484647799381E-01 7.078051567078E-08
     9.895668653291E-01 3.637500000000E+02-1.612165479106E+00-5.874887569791E-09
    -1.039329006511E-10 5.170000000000E+02 2.084000000000E+03
     3.120000000000E+00 0.000000000000E+00-5.122274160385E-09-5.820766091347E-09
     4.928300000000E+04
E18 2019 12 15 13 40 00-9.272652096115E-04-1.421085471520E-11 0.000000000000E+00
     8.200000000000E+01 3.571875000000E+01 6.834570401576E-09-7.431097323831E-01
     2.337619662285E-06 1.668815298472E-01 5.587935447693E-06 5.289326498032E+03
     4.920000000000E+04-2.818182110786E-06-1.300791657754E+00 5.532056093216E-07
     8.825511030988E-01 2.550937500000E+02 1.628968142159E+00-1.169834442586E-08
     6.043108862598E-10 5.170000000000E+02 2.084000000000E+03
     3.120000000000E+00 3.900000000000E+02-3.259629011154E-09-3.958120942116E-09
     4.986500000000E+04
E21 2019 12 15 13 40 00-5.714804283343E-04-2.017941369559E-12 0.000000000000E+00
     8.200000000000E+01 1.089687500000E+02 2.519747814753E-09-3.126304333113E+00
     4.958361387253E-06 9.167415555567E-05 1.298449933529E-05 5.440630205154E+03
     4.920000000000E+04 2.607703208923E-08-2.730375116592E+00-7.450580596924E-08
     9.850480108607E-01 7.368750000000E+01-8.107360142492E-01-5.142714214689E-09
    -5.710952169795E-10 5.170000000000E+02 2.084000000000E+03
     3.120000000000E+00 0.000000000000E+00 2.328306436539E-10 0.000000000000E+00
     4.986500000000E+04
E01 2019 12 15 13 40 00-7.528956048191E-04-7.858602657507E-12 0.000000000000E+00
     8.200000000000E+01 9.421875000000E+01 2.400099973798E-09 2.506289583764E+00
     4.412606358528E-06 1.623765565455E-04 1.273304224014E-05 5.440624219894E+03
     4.920000000000E+04-5.774199962616E-08-2.727671544503E+00-1.210719347000E-07
     9.854830724570E-01 8.268750000000E+01-9.434835970217E-01-5.078068664800E-09
    -5.728810056505E-10 5.170000000000E+02 2.084000000000E+03
    -1.000000000000E+00 0.000000000000E+00-1.862645149231E-09-3.259629011154E-09
     4.986500000000E+04
E33 2019 12 15 13 40 00-4.714746028185E-04 2.131628207280E-13 0.000000000000E+00
     8.200000000000E+01-9.953125000000E+01 2.900120801672E-09 1.096026115967E+00
    -4.598870873451E-06 3.398233093321E-04-5.830079317093E-07 5.440598766327E+03
     4.920000000000E+04-3.352761268616E-08-6.484682455910E-01 6.891787052155E-08
     9.895667234261E-01 3.659062500000E+02-1.611378765651E+00-5.888816721425E-09
    -1.035757429169E-10 5.170000000000E+02 2.084000000000E+03
     3.120000000000E+00 0.000000000000E+00-5.122274160385E-09-5.820766091347E-09
     4.988500000000E+04
E26 2019 12 15 13 40 00 3.760963969398E-03-4.369837824925E-11 0.000000000000E+00
     8.200000000000E+01-1.056562500000E+02 3.060484624326E-09 2.449441314274E+00
    -4.950910806656E-06 3.452894743532E-04-9.108334779739E-07 5.440612077713E+03
     4.920000000000E+04-7.450580596924E-09-6.410992990105E-01 5.587935447693E-09
     9.827369791912E-01 3.728437500000E+02-2.190475076045E+00-5.996321199418E-09
    -9.107522222000E-11 5.170000000000E+02 2.084000000000E+03
     3.120000000000E+00 0.000000000000E+00 3.958120942116E-09 4.423782229424E-09
     5.031500000000E+04
E13 2019 12 15 13 40 00 3.963993513025E-04 4.263256414561E-13 0.000000000000E+00
     8.200000000000E+01-1.140000000000E+02 2.962980562891E-09 2.775517194609E+00
    -5.487352609634E-06 3.234918694943E-04-1.043081283569E-06 5.440600669861E+03
     4.920000000000E+04-3.166496753693E-08-6.484312674107E-01 1.490116119385E-08
     9.895703646292E-01 3.761875000000E+02-1.720654026798E+00-5.934890069136E-09
    -1.128618440060E-10 5.170000000000E+02 2.084000000000E+03
     3.120000000000E+00 0.000000000000E+00-1.396983861923E-09-2.095475792885E-09
     5.037500000000E+04
E27 2019 12 15 13 40 00 3.245514817536E-04-7.929656931083E-12 0.000000000000E+00
     8.200000000000E+01 1.236250000000E+02 2.422243753318E-09-2.218853093029E+00
     5.682930350304E-06 2.550954231992E-04 1.245364546776E-05 5.440633522034E+03
     4.920000000000E+04 3.911554813385E-08-2.730366641907E+00-2.607703208923E-08
     9.850201349567E-01 8.509375000000E+01-9.292864788433E-01-5.121284750638E-09
    -5.132356640398E-10 5.170000000000E+02 2.084000000000E+03
     3.120000000000E+00 0.000000000000E+00 0.000000000000E+00-2.328306436539E-10
     5.037500000000E+04
